{"type": "FeatureCollection", "features": [ {"type": "Feature", "properties": {"norad_id": 39122, "name": "EUTELSAT 117 WEST A", "group": "eutelsat", "lat": 0.026980527419664457, "lon": 34.3629935211862, "alt_km": 35795.71768549688, "timestamp": "2025-12-09T04:51:47.179567+00:00", "meta": {"OBJECT_NAME": "EUTELSAT 117 WEST A", "OBJECT_ID": "2013-012A", "EPOCH": "2025-12-08T14:45:38.097792", "MEAN_MOTION": 1.00270477, "ECCENTRICITY": 0.0003102, "INCLINATION": 0.0132, "RA_OF_ASC_NODE": 342.409, "ARG_OF_PERICENTER": 276.8987, "MEAN_ANOMALY": 282.9194, "EPHEMERIS_TYPE": 0, "CLASSIFICATION_TYPE": "U", "NORAD_CAT_ID": 39122, "ELEMENT_SET_NO": 999, "REV_AT_EPOCH": 4652, "BSTAR": 0, "MEAN_MOTION_DOT": -1.1e-07, "MEAN_MOTION_DDOT": 0}, "tle": {"line1": "1 39122U 13012A   25342.61502428 -.00000011  00000+0  00000+0 0  9999", "line2": "2 39122   0.0132 342.4090 0003102 276.8987 282.9194  1.00270477 46520"}}, "geometry": {"type": "Point", "coordinates": [34.3629935211862, 0.026980527419664457]}}, {"type": "Feature", "properties": {"norad_id": 39163, "name": "EUTELSAT 7B", "group": "eutelsat", "lat": 0.043365358920001866, "lon": 158.10491970067451, "alt_km": 35803.607000265554, "timestamp": "2025-12-09T04:51:47.179580+00:00", "meta": {"OBJECT_NAME": "EUTELSAT 7B", "OBJECT_ID": "2013-022A", "EPOCH": "2025-12-08T18:46:23.640384", "MEAN_MOTION": 1.00271368, "ECCENTRICITY": 0.0004547, "INCLINATION": 0.0705, "RA_OF_ASC_NODE": 13.1138, "ARG_OF_PERICENTER": 300.896, "MEAN_ANOMALY": 52.3582, "EPHEMERIS_TYPE": 0, "CLASSIFICATION_TYPE": "U", "NORAD_CAT_ID": 39163, "ELEMENT_SET_NO": 999, "REV_AT_EPOCH": 4604, "BSTAR": 0, "MEAN_MOTION_DOT": 5e-07, "MEAN_MOTION_DDOT": 0}, "tle": {"line1": "1 39163U 13022A   25342.78221806  .00000050  00000+0  00000+0 0  9993", "line2": "2 39163   0.0705  13.1138 0004547 300.8960  52.3582  1.00271368 46046"}}, "geometry": {"type": "Point", "coordinates": [158.10491970067451, 0.043365358920001866]}}, {"type": "Feature", "properties": {"norad_id": 39612, "name": "EXPRESS-AT1", "group": "eutelsat", "lat": -0.0323683008925676, "lon": -152.85810013260837, "alt_km": 35783.93913273017, "timestamp": "2025-12-09T04:51:47.179592+00:00", "meta": {"OBJECT_NAME": "EXPRESS-AT1", "OBJECT_ID": "2014-010A", "EPOCH": "2025-12-08T20:48:38.729952", "MEAN_MOTION": 1.00269923, "ECCENTRICITY": 6.44e-05, "INCLINATION": 0.0183, "RA_OF_ASC_NODE": 306.8649, "ARG_OF_PERICENTER": 247.3139, "MEAN_ANOMALY": 251.8515, "EPHEMERIS_TYPE": 0, "CLASSIFICATION_TYPE": "U", "NORAD_CAT_ID": 39612, "ELEMENT_SET_NO": 999, "REV_AT_EPOCH": 4291, "BSTAR": 0, "MEAN_MOTION_DOT": 8.1e-07, "MEAN_MOTION_DDOT": 0}, "tle": {"line1": "1 39612U 14010A   25342.86711493  .00000081  00000+0  00000+0 0  9999", "line2": "2 39612   0.0183 306.8649 0000644 247.3139 251.8515  1.00269923 42919"}}, "geometry": {"type": "Point", "coordinates": [-152.85810013260837, -0.0323683008925676]}}, {"type": "Feature", "properties": {"norad_id": 39613, "name": "EXPRESS-AT2", "group": "eutelsat", "lat": -0.01842882581540568, "lon": -68.99350747136761, "alt_km": 35779.33122406361, "timestamp": "2025-12-09T04:51:47.179611+00:00", "meta": {"OBJECT_NAME": "EXPRESS-AT2", "OBJECT_ID": "2014-010B", "EPOCH": "2025-12-08T21:07:02.668800", "MEAN_MOTION": 1.00272548, "ECCENTRICITY": 0.0001569, "INCLINATION": 0.0177, "RA_OF_ASC_NODE": 310.7405, "ARG_OF_PERICENTER": 332.8818, "MEAN_ANOMALY": 250.8812, "EPHEMERIS_TYPE": 0, "CLASSIFICATION_TYPE": "U", "NORAD_CAT_ID": 39613, "ELEMENT_SET_NO": 999, "REV_AT_EPOCH": 4259, "BSTAR": 0, "MEAN_MOTION_DOT": -2.79e-06, "MEAN_MOTION_DDOT": 0}, "tle": {"line1": "1 39613U 14010B   25342.87989200 -.00000279  00000+0  00000+0 0  9994", "line2": "2 39613   0.0177 310.7405 0001569 332.8818 250.8812  1.00272548 42598"}}, "geometry": {"type": "Point", "coordinates": [-68.99350747136761, -0.01842882581540568]}}, {"type": "Feature", "properties": {"norad_id": 39773, "name": "EUTELSAT 3B", "group": "eutelsat", "lat": 0.009510404733231463, "lon": 154.19329410636684, "alt_km": 35780.67425706094, "timestamp": "2025-12-09T04:51:47.179634+00:00", "meta": {"OBJECT_NAME": "EUTELSAT 3B", "OBJECT_ID": "2014-030A", "EPOCH": "2025-12-08T18:45:16.248384", "MEAN_MOTION": 1.00271222, "ECCENTRICITY": 0.0004785, "INCLINATION": 0.0638, "RA_OF_ASC_NODE": 340.3118, "ARG_OF_PERICENTER": 247.7629, "MEAN_ANOMALY": 134.132, "EPHEMERIS_TYPE": 0, "CLASSIFICATION_TYPE": "U", "NORAD_CAT_ID": 39773, "ELEMENT_SET_NO": 999, "REV_AT_EPOCH": 4215, "BSTAR": 0, "MEAN_MOTION_DOT": 2.2e-07, "MEAN_MOTION_DDOT": 0}, "tle": {"line1": "1 39773U 14030A   25342.78143806  .00000022  00000+0  00000+0 0  9992", "line2": "2 39773   0.0638 340.3118 0004785 247.7629 134.1320  1.00271222 42152"}}, "geometry": {"type": "Point", "coordinates": [154.19329410636684, 0.009510404733231463]}}, {"type": "Feature", "properties": {"norad_id": 40425, "name": "EUTELSAT 115 WEST B", "group": "eutelsat", "lat": -0.011237436551418624, "lon": 36.227494574207725, "alt_km": 35788.901957804155, "timestamp": "2025-12-09T04:51:47.179648+00:00", "meta": {"OBJECT_NAME": "EUTELSAT 115 WEST B", "OBJECT_ID": "2015-010B", "EPOCH": "2025-12-08T16:28:50.714112", "MEAN_MOTION": 1.0026292, "ECCENTRICITY": 4.51e-05, "INCLINATION": 0.0073, "RA_OF_ASC_NODE": 153.6878, "ARG_OF_PERICENTER": 343.34, "MEAN_ANOMALY": 72.981, "EPHEMERIS_TYPE": 0, "CLASSIFICATION_TYPE": "U", "NORAD_CAT_ID": 40425, "ELEMENT_SET_NO": 999, "REV_AT_EPOCH": 3948, "BSTAR": 0, "MEAN_MOTION_DOT": -2.2e-07, "MEAN_MOTION_DDOT": 0}, "tle": {"line1": "1 40425U 15010B   25342.68669808 -.00000022  00000+0  00000+0 0  9992", "line2": "2 40425   0.0073 153.6878 0000451 343.3400  72.9810  1.00262920 39485"}}, "geometry": {"type": "Point", "coordinates": [36.227494574207725, -0.011237436551418624]}}, {"type": "Feature", "properties": {"norad_id": 40875, "name": "EUTELSAT 8 WEST B", "group": "eutelsat", "lat": 0.045855757693949194, "lon": 143.11150397763063, "alt_km": 35793.84237129465, "timestamp": "2025-12-09T04:51:47.179660+00:00", "meta": {"OBJECT_NAME": "EUTELSAT 8 WEST B", "OBJECT_ID": "2015-039B", "EPOCH": "2025-12-08T18:42:09.047232", "MEAN_MOTION": 1.00271451, "ECCENTRICITY": 0.0004145, "INCLINATION": 0.0646, "RA_OF_ASC_NODE": 359.1923, "ARG_OF_PERICENTER": 259.8544, "MEAN_ANOMALY": 91.2858, "EPHEMERIS_TYPE": 0, "CLASSIFICATION_TYPE": "U", "NORAD_CAT_ID": 40875, "ELEMENT_SET_NO": 999, "REV_AT_EPOCH": 3774, "BSTAR": 0, "MEAN_MOTION_DOT": -6.3e-07, "MEAN_MOTION_DDOT": 0}, "tle": {"line1": "1 40875U 15039B   25342.77927138 -.00000063  00000+0  00000+0 0  9990", "line2": "2 40875   0.0646 359.1923 0004145 259.8544  91.2858  1.00271451 37740"}}, "geometry": {"type": "Point", "coordinates": [143.11150397763063, 0.045855757693949194]}}, {"type": "Feature", "properties": {"norad_id": 41310, "name": "EUTELSAT 9B", "group": "eutelsat", "lat": 0.03316270844886744, "lon": 160.09690713588228, "alt_km": 35791.186298948, "timestamp": "2025-12-09T04:51:47.179672+00:00", "meta": {"OBJECT_NAME": "EUTELSAT 9B", "OBJECT_ID": "2016-005A", "EPOCH": "2025-12-08T18:47:01.080096", "MEAN_MOTION": 1.0027199, "ECCENTRICITY": 0.0004895, "INCLINATION": 0.035, "RA_OF_ASC_NODE": 51.0952, "ARG_OF_PERICENTER": 213.5895, "MEAN_ANOMALY": 103.8639, "EPHEMERIS_TYPE": 0, "CLASSIFICATION_TYPE": "U", "NORAD_CAT_ID": 41310, "ELEMENT_SET_NO": 999, "REV_AT_EPOCH": 3620, "BSTAR": 0, "MEAN_MOTION_DOT": 6.4e-07, "MEAN_MOTION_DDOT": 0}, "tle": {"line1": "1 41310U 16005A   25342.78265139  .00000064  00000+0  00000+0 0  9996", "line2": "2 41310   0.0350  51.0952 0004895 213.5895 103.8639  1.00271990 36200"}}, "geometry": {"type": "Point", "coordinates": [160.09690713588228, 0.03316270844886744]}}, {"type": "Feature", "properties": {"norad_id": 41382, "name": "EUTELSAT 65 WEST A", "group": "eutelsat", "lat": 0.06986971682306413, "lon": 85.92580348674493, "alt_km": 35797.196397316926, "timestamp": "2025-12-09T04:51:47.179684+00:00", "meta": {"OBJECT_NAME": "EUTELSAT 65 WEST A", "OBJECT_ID": "2016-014A", "EPOCH": "2025-12-08T12:41:22.901856", "MEAN_MOTION": 1.00271818, "ECCENTRICITY": 0.00026162, "INCLINATION": 0.0497, "RA_OF_ASC_NODE": 1.9264, "ARG_OF_PERICENTER": 260.5786, "MEAN_ANOMALY": 300.161, "EPHEMERIS_TYPE": 0, "CLASSIFICATION_TYPE": "U", "NORAD_CAT_ID": 41382, "ELEMENT_SET_NO": 999, "REV_AT_EPOCH": 3562, "BSTAR": 0, "MEAN_MOTION_DOT": -2.74e-06, "MEAN_MOTION_DDOT": 0}, "tle": {"line1": "1 41382U 16014A   25342.52873729 -.00000274  00000+0  00000+0 0  9991", "line2": "2 41382   0.0497   1.9264 0002616 260.5786 300.1610  1.00271818 35626"}}, "geometry": {"type": "Point", "coordinates": [85.92580348674493, 0.06986971682306413]}}, {"type": "Feature", "properties": {"norad_id": 41589, "name": "EUTELSAT 117 WEST B", "group": "eutelsat", "lat": -0.010835982341927196, "lon": 34.13356899741459, "alt_km": 35786.23337754506, "timestamp": "2025-12-09T04:51:47.179696+00:00", "meta": {"OBJECT_NAME": "EUTELSAT 117 WEST B", "OBJECT_ID": "2016-038B", "EPOCH": "2025-12-08T16:28:20.761824", "MEAN_MOTION": 1.00268965, "ECCENTRICITY": 4.33e-05, "INCLINATION": 0.0072, "RA_OF_ASC_NODE": 147.2989, "ARG_OF_PERICENTER": 317.1838, "MEAN_ANOMALY": 103.2954, "EPHEMERIS_TYPE": 0, "CLASSIFICATION_TYPE": "U", "NORAD_CAT_ID": 41589, "ELEMENT_SET_NO": 999, "REV_AT_EPOCH": 3475, "BSTAR": 0, "MEAN_MOTION_DOT": -9e-08, "MEAN_MOTION_DDOT": 0}, "tle": {"line1": "1 41589U 16038B   25342.68635141 -.00000009  00000+0  00000+0 0  9993", "line2": "2 41589   0.0072 147.2989 0000433 317.1838 103.2954  1.00268965 34759"}}, "geometry": {"type": "Point", "coordinates": [34.13356899741459, -0.010835982341927196]}}]}